LANDSAT 9               
1 49260U 21088A   24222.45844676  .00002755  00000+0  62158-3 0  9999
2 49260  98.2280 291.3950 0001249  83.6301 276.5040 14.57091578152456
